NORAD_CAT_ID,OBJECT_NAME,OBJECT_TYPE,EPOCH,MEAN_MOTION,ECCENTRICITY,INCLINATION,RA_OF_ASC_NODE,ARG_OF_PERICENTER,MEAN_ANOMALY,BSTAR,MEAN_MOTION_DOT,MEAN_MOTION_DDOT,TLE_LINE0,TLE_LINE1,TLE_LINE2,SEMIMAJOR_AXIS,PERIOD,APOGEE,PERIGEE,DECAYED
53899.0,STARLINK-5042,PAYLOAD,2023-11-23 14:02:28,15.08835752,0.0001292,53.2158,121.7863,90.8627,269.2513,3.0568e-05,1.99e-06,0.0,0 STARLINK-5042,1 53899U 22119P   23327.58504687  .00000199  00000-0  30568-4 0  9994,2 53899  53.2158 121.7863 0001292  90.8627 269.2513 15.08835752 65311,6917.893,95.438,540.652,538.865,0.0
53899.0,STARLINK-5042,PAYLOAD,2023-11-23 15:37:51,15.08833091,0.0001324,53.2157,121.4888,82.6289,277.4854,5.3299e-06,-2.03e-06,0.0,0 STARLINK-5042,1 53899U 22119P   23327.65128904 -.00000203  00000-0  53299-5 0  9990,2 53899  53.2157 121.4888 0001324  82.6289 277.4854 15.08833091 64900,6917.902,95.438,540.682,538.851,0.0
53899.0,STARLINK-5042,PAYLOAD,2023-11-24 13:53:15,15.08841262,0.0001283,53.216,117.3233,93.5222,266.5916,0.00014235,1.978e-05,0.0,0 STARLINK-5042,1 53899U 22119P   23328.57864945  .00001978  00000-0  14235-3 0  9998,2 53899  53.2160 117.3233 0001283  93.5222 266.5916 15.08841262 65463,6917.877,95.437,540.629,538.854,0.0
53899.0,STARLINK-5042,PAYLOAD,2023-11-24 15:28:38,15.08842199,0.0001348,53.2164,117.0252,93.3613,266.7533,0.00014271,1.984e-05,0.0,0 STARLINK-5042,1 53899U 22119P   23328.64488908  .00001984  00000-0  14271-3 0  9994,2 53899  53.2164 117.0252 0001348  93.3613 266.7533 15.08842199 65477,6917.874,95.437,540.671,538.806,0.0
53899.0,STARLINK-5042,PAYLOAD,2023-11-25 13:44:02,15.08842014,0.0001394,53.2159,112.866,48.3935,311.7176,0.00026596,3.948e-05,0.0,0 STARLINK-5042,1 53899U 22119P   23329.57225435  .00003948  00000-0  26596-3 0  9996,2 53899  53.2159 112.8660 0001394  48.3935 311.7176 15.08842014 65611,6917.874,95.437,540.704,538.775,0.0
53899.0,STARLINK-5042,PAYLOAD,2023-11-25 15:19:25,15.08845421,0.0001393,53.2154,112.5691,50.8706,309.241,0.00032751,4.929e-05,0.0,0 STARLINK-5042,1 53899U 22119P   23329.63849324  .00004929  00000-0  32751-3 0  9992,2 53899  53.2154 112.5691 0001393  50.8706 309.2410 15.08845421 65629,6917.864,95.437,540.692,538.765,0.0
53899.0,STARLINK-5042,PAYLOAD,2023-11-26 13:34:49,15.08851825,0.0001529,53.2157,108.4071,48.64,311.4723,0.00023076,3.388e-05,0.0,0 STARLINK-5042,1 53899U 22119P   23330.56584683  .00003388  00000-0  23076-3 0  9998,2 53899  53.2157 108.4071 0001529  48.6400 311.4723 15.08851825 65767,6917.844,95.437,540.767,538.652,0.0
53899.0,STARLINK-5042,PAYLOAD,2023-11-26 18:20:58,15.08858835,0.0001235,53.2152,107.5128,77.2311,282.8819,0.00035753,5.41e-05,0.0,0 STARLINK-5042,1 53899U 22119P   23330.76456155  .00005410  00000-0  35753-3 0  9995,2 53899  53.2152 107.5128 0001235  77.2311 282.8819 15.08858835 65370,6917.823,95.436,540.542,538.833,0.0
53899.0,STARLINK-5042,PAYLOAD,2023-11-27 13:25:36,15.08840762,0.0001729,53.2159,103.9431,70.3038,289.8141,-5.6924e-05,-1.194e-05,0.0,0 STARLINK-5042,1 53899U 22119P   23331.55944704 -.00001194  00000-0 -56924-4 0  9996,2 53899  53.2159 103.9431 0001729  70.3038 289.8141 15.08840762 65917,6917.878,95.438,540.939,538.547,0.0
53899.0,STARLINK-5042,PAYLOAD,2023-11-27 16:36:22,15.08841275,0.0001153,53.2158,103.3503,80.4046,279.7076,-2.8459e-05,-7.41e-06,0.0,0 STARLINK-5042,1 53899U 22119P   23331.69192623 -.00000741  00000-0 -28459-4 0  9995,2 53899  53.2158 103.3503 0001153  80.4046 279.7076 15.08841275 65513,6917.876,95.437,540.539,538.944,0.0
53899.0,STARLINK-5042,PAYLOAD,2023-11-28 14:51:46,15.08837499,0.0001668,53.2166,99.1922,60.2005,299.9153,2.9996e-05,1.89e-06,0.0,0 STARLINK-5042,1 53899U 22119P   23332.61929376  .00000189  00000-0  29996-4 0  9992,2 53899  53.2166  99.1922 0001668  60.2005 299.9153 15.08837499 66076,6917.888,95.438,540.907,538.599,0.0
53899.0,STARLINK-5042,PAYLOAD,2023-11-28 18:02:33,15.08841557,0.0001938,53.2184,98.5868,57.0853,303.0325,0.00016651,2.363e-05,0.0,0 STARLINK-5042,1 53899U 22119P   23332.75177305  .00002363  00000-0  16651-3 0  9993,2 53899  53.2184  98.5868 0001938  57.0853 303.0325 15.08841557 65676,6917.876,95.437,541.081,538.4,0.0
53899.0,STARLINK-5042,PAYLOAD,2023-11-29 14:42:34,15.08840729,0.0001442,53.2172,94.7325,77.1345,282.9809,0.00020205,2.929e-05,0.0,0 STARLINK-5042,1 53899U 22119P   23333.61289677  .00002929  00000-0  20205-3 0  9993,2 53899  53.2172  94.7325 0001442  77.1345 282.9809 15.08840729 66222,6917.878,95.438,540.741,538.746,0.0
53899.0,STARLINK-5042,PAYLOAD,2023-11-30 11:22:35,15.08843167,0.0001322,53.2175,90.8582,81.9621,278.1521,0.00011119,1.482e-05,0.0,0 STARLINK-5042,1 53899U 22119P   23334.47401669  .00001482  00000-0  11119-3 0  9992,2 53899  53.2175  90.8582 0001322  81.9621 278.1521 15.08843167 65938,6917.871,95.437,540.65,538.821,0.0
53899.0,STARLINK-5042,PAYLOAD,2023-12-01 14:24:07,15.08853396,0.0001482,53.2178,85.8064,105.7581,254.3575,0.0002357,3.467e-05,0.0,0 STARLINK-5042,1 53899U 22119P   23335.60009208  .00003467  00000-0  23570-3 0  9990,2 53899  53.2178  85.8064 0001482 105.7581 254.3575 15.08853396 66107,6917.839,95.437,540.73,538.679,0.0
53899.0,STARLINK-5042,PAYLOAD,2023-12-02 12:39:31,15.0886306,0.0001522,53.2177,81.6415,80.5645,279.5519,0.00038226,5.805e-05,0.0,0 STARLINK-5042,1 53899U 22119P   23336.52744527  .00005805  00000-0  38226-3 0  9994,2 53899  53.2177  81.6415 0001522  80.5645 279.5519 15.08863060 66663,6917.81,95.436,540.728,538.622,0.0
53899.0,STARLINK-5042,PAYLOAD,2023-12-03 10:54:58,15.08804104,0.000155,53.2166,77.4837,88.8584,271.2585,-0.00054283,-8.908e-05,0.0,0 STARLINK-5042,1 53899U 22119P   23337.45484043 -.00008908  00000-0 -54283-3 0  9991,2 53899  53.2166  77.4837 0001550  88.8584 271.2585 15.08804104 66381,6917.99,95.44,540.927,538.783,0.0
53899.0,STARLINK-5042,PAYLOAD,2023-12-03 12:30:21,15.08813066,0.0001834,53.2174,77.1814,102.8101,257.3097,-0.0003021,-5.089e-05,0.0,0 STARLINK-5042,1 53899U 22119P   23337.52107997 -.00005089  00000-0 -30210-3 0  9990,2 53899  53.2174  77.1814 0001834 102.8101 257.3097 15.08813066 66817,6917.963,95.439,541.096,538.559,0.0
53899.0,STARLINK-5042,PAYLOAD,2023-12-04 10:45:44,15.08831382,0.0001747,53.2166,73.0191,133.3173,226.7965,0.00018488,2.655e-05,0.0,0 STARLINK-5042,1 53899U 22119P   23338.44843575  .00002655  00000-0  18488-3 0  9998,2 53899  53.2166  73.0191 0001747 133.3173 226.7965 15.08831382 66536,6917.907,95.438,540.98,538.563,0.0
53899.0,STARLINK-5042,PAYLOAD,2023-12-04 12:21:08,15.08842511,0.0001854,53.2177,72.722,81.9911,278.1291,0.00052666,8.104e-05,0.0,0 STARLINK-5042,1 53899U 22119P   23338.51467868  .00008104  00000-0  52666-3 0  9994,2 53899  53.2177  72.7220 0001854  81.9911 278.1291 15.08842511 66960,6917.873,95.437,541.02,538.455,0.0
53899.0,STARLINK-5042,PAYLOAD,2023-12-04 15:31:53,15.08853515,0.0001745,53.2167,72.1264,113.0248,247.0928,0.00033082,4.983e-05,0.0,0 STARLINK-5042,1 53899U 22119P   23338.64714693  .00004983  00000-0  33082-3 0  9991,2 53899  53.2167  72.1264 0001745 113.0248 247.0928 15.08853515 66564,6917.839,95.437,540.911,538.497,0.0
53899.0,STARLINK-5042,PAYLOAD,2023-12-05 12:11:54,15.08855318,0.0001873,53.2161,68.2624,108.2915,251.8281,0.00055622,8.579e-05,0.0,0 STARLINK-5042,1 53899U 22119P   23339.50827292  .00008579  00000-0  55622-3 0  9996,2 53899  53.2161  68.2624 0001873 108.2915 251.8281 15.08855318 66695,6917.834,95.437,540.994,538.403,0.0
53899.0,STARLINK-5042,PAYLOAD,2023-12-05 15:22:40,15.0885795,0.0001653,53.2162,67.6667,106.5428,253.5745,0.0006984,0.0001085,0.0,0 STARLINK-5042,1 53899U 22119P   23339.64075049  .00010850  00000-0  69840-3 0  9998,2 53899  53.2162  67.6667 0001653 106.5428 253.5745 15.08857950 67130,6917.826,95.436,540.834,538.547,0.0
53899.0,STARLINK-5042,PAYLOAD,2023-12-06 12:02:41,15.0885149,0.0001755,53.2162,63.8022,101.748,258.3709,-8.3736e-05,-1.621e-05,0.0,0 STARLINK-5042,1 53899U 22119P   23340.50186594 -.00001621  00000-0 -83736-4 0  9992,2 53899  53.2162  63.8022 0001755 101.7480 258.3709 15.08851490 66844,6917.845,95.437,540.924,538.496,0.0
53899.0,STARLINK-5042,PAYLOAD,2023-12-07 11:53:28,15.08837449,0.0001702,53.2176,59.3409,94.682,265.4366,-0.00018256,-3.192e-05,0.0,0 STARLINK-5042,1 53899U 22119P   23341.49547244 -.00003192  00000-0 -18256-3 0  9993,2 53899  53.2176  59.3409 0001702  94.6820 265.4366 15.08837449 66990,6917.888,95.438,540.931,538.576,0.0
53899.0,STARLINK-5042,PAYLOAD,2023-12-08 10:08:52,15.08846214,0.0001635,53.2185,55.1803,98.0186,262.0992,0.00016969,2.414e-05,0.0,0 STARLINK-5042,1 53899U 22119P   23342.42282775  .00002414  00000-0  16969-3 0  9995,2 53899  53.2185  55.1803 0001635  98.0186 262.0992 15.08846214 67135,6917.861,95.437,540.857,538.595,0.0
53899.0,STARLINK-5042,PAYLOAD,2023-12-09 11:35:03,15.08826281,0.0001631,53.219,50.418,86.4791,273.6388,0.00034031,5.13e-05,0.0,0 STARLINK-5042,1 53899U 22119P   23343.48267799  .00005130  00000-0  34031-3 0  9999,2 53899  53.2190  50.4180 0001631  86.4791 273.6388 15.08826281 67292,6917.922,95.438,540.916,538.659,0.0
53899.0,STARLINK-5042,PAYLOAD,2023-12-11 11:16:37,15.08841491,0.0001675,53.2187,41.5005,81.7078,278.4104,9.8206e-05,1.275e-05,0.0,0 STARLINK-5042,1 53899U 22119P   23345.46987462  .00001275  00000-0  98206-4 0  9996,2 53899  53.2187  41.5005 0001675  81.7078 278.4104 15.08841491 67591,6917.876,95.437,540.9,538.582,0.0
53899.0,STARLINK-5042,PAYLOAD,2023-12-12 11:07:24,15.08842789,0.0001999,53.2194,37.0354,61.9223,298.1971,8.9699e-05,1.14e-05,0.0,0 STARLINK-5042,1 53899U 22119P   23346.46347684  .00001140  00000-0  89699-4 0  9990,2 53899  53.2194  37.0354 0001999  61.9223 298.1971 15.08842789 68163,6917.872,95.437,541.12,538.354,0.0
53899.0,STARLINK-5042,PAYLOAD,2023-12-13 10:58:11,15.08842586,0.0001852,53.2189,32.5789,65.8314,294.2871,5.9258e-05,6.55e-06,0.0,0 STARLINK-5042,1 53899U 22119P   23347.45707639  .00000655  00000-0  59258-4 0  9998,2 53899  53.2189  32.5789 0001852  65.8314 294.2871 15.08842586 67891,6917.872,95.437,541.019,538.456,0.0
